ION SCV-008             
1 55051U 23001AU  26068.82429008  .00008336  00000+0  31423-3 0  9992
2 55051  97.5676 163.6060 0015192   8.5420 351.6074 15.27226640176169
STARLINK-36059          
1 66904U 25283AC  26068.15855186  .00029460  00000+0  10033-2 0  9995
2 66904  53.1616  26.5714 0001092  90.4950 269.6176 15.30185584 15769
